{"type": "FeatureCollection", "features": [ {"type": "Feature", "properties": {"norad_id": 37834, "name": "INTELSAT 18 (IS-18)", "group": "intelsat", "lat": -0.011240898767620031, "lon": -36.58624214576591, "alt_km": 35780.5170995212, "timestamp": "2025-12-16T03:53:26.726599+00:00", "meta": {"OBJECT_NAME": "INTELSAT 18 (IS-18)", "OBJECT_ID": "2011-056A", "EPOCH": "2025-12-15T08:14:38.804352", "MEAN_MOTION": 1.00272138, "ECCENTRICITY": 0.00017164, "INCLINATION": 0.0026, "RA_OF_ASC_NODE": 7.0827, "ARG_OF_PERICENTER": 274.6372, "MEAN_ANOMALY": 106.1842, "EPHEMERIS_TYPE": 0, "CLASSIFICATION_TYPE": "U", "NORAD_CAT_ID": 37834, "ELEMENT_SET_NO": 999, "REV_AT_EPOCH": 5196, "BSTAR": 0, "MEAN_MOTION_DOT": 7.4e-07, "MEAN_MOTION_DDOT": 0}, "tle": {"line1": "1 37834U 11056A   25349.34350468  .00000074  00000+0  00000+0 0  9993", "line2": "2 37834   0.0026   7.0827 0001716 274.6372 106.1842  1.00272138 51962"}}, "geometry": {"type": "Point", "coordinates": [-36.58624214576591, -0.011240898767620031]}}, {"type": "Feature", "properties": {"norad_id": 38098, "name": "INTELSAT 22 (IS-22)", "group": "intelsat", "lat": -0.018481624703774027, "lon": -144.4964681522046, "alt_km": 35781.77104263734, "timestamp": "2025-12-16T03:53:26.726627+00:00", "meta": {"OBJECT_NAME": "INTELSAT 22 (IS-22)", "OBJECT_ID": "2012-011A", "EPOCH": "2025-12-15T03:27:20.291040", "MEAN_MOTION": 1.00271332, "ECCENTRICITY": 0.00017634, "INCLINATION": 0.0022, "RA_OF_ASC_NODE": 357.5465, "ARG_OF_PERICENTER": 271.696, "MEAN_ANOMALY": 298.76, "EPHEMERIS_TYPE": 0, "CLASSIFICATION_TYPE": "U", "NORAD_CAT_ID": 38098, "ELEMENT_SET_NO": 999, "REV_AT_EPOCH": 534, "BSTAR": 0, "MEAN_MOTION_DOT": -3.8e-07, "MEAN_MOTION_DDOT": 0}, "tle": {"line1": "1 38098U 12011A   25349.14398485 -.00000038  00000+0  00000+0 0  9998", "line2": "2 38098   0.0022 357.5465 0001763 271.6960 298.7600  1.00271332  5340"}}, "geometry": {"type": "Point", "coordinates": [-144.4964681522046, -0.018481624703774027]}}, {"type": "Feature", "properties": {"norad_id": 38356, "name": "INTELSAT 19 (IS-19)", "group": "intelsat", "lat": -0.01358590481071581, "lon": -50.55819614908622, "alt_km": 35774.980393273225, "timestamp": "2025-12-16T03:53:26.726642+00:00", "meta": {"OBJECT_NAME": "INTELSAT 19 (IS-19)", "OBJECT_ID": "2012-030A", "EPOCH": "2025-12-15T07:12:38.676096", "MEAN_MOTION": 1.00271843, "ECCENTRICITY": 0.00032414, "INCLINATION": 0.01, "RA_OF_ASC_NODE": 331.6113, "ARG_OF_PERICENTER": 301.747, "MEAN_ANOMALY": 85.0232, "EPHEMERIS_TYPE": 0, "CLASSIFICATION_TYPE": "U", "NORAD_CAT_ID": 38356, "ELEMENT_SET_NO": 999, "REV_AT_EPOCH": 4860, "BSTAR": 0, "MEAN_MOTION_DOT": -3.5e-07, "MEAN_MOTION_DDOT": 0}, "tle": {"line1": "1 38356U 12030A   25349.30044764 -.00000035  00000+0  00000+0 0  9999", "line2": "2 38356   0.0100 331.6113 0003241 301.7470  85.0232  1.00271843 48602"}}, "geometry": {"type": "Point", "coordinates": [-50.55819614908622, -0.01358590481071581]}}, {"type": "Feature", "properties": {"norad_id": 38740, "name": "INTELSAT 20 (IS-20)", "group": "intelsat", "lat": -0.007344314112257575, "lon": -148.08450751044614, "alt_km": 35774.78522643875, "timestamp": "2025-12-16T03:53:26.726654+00:00", "meta": {"OBJECT_NAME": "INTELSAT 20 (IS-20)", "OBJECT_ID": "2012-043A", "EPOCH": "2025-12-15T05:09:03.048768", "MEAN_MOTION": 1.00269353, "ECCENTRICITY": 0.00032754, "INCLINATION": 0.0039, "RA_OF_ASC_NODE": 45.5478, "ARG_OF_PERICENTER": 136.5346, "MEAN_ANOMALY": 47.8015, "EPHEMERIS_TYPE": 0, "CLASSIFICATION_TYPE": "U", "NORAD_CAT_ID": 38740, "ELEMENT_SET_NO": 999, "REV_AT_EPOCH": 4890, "BSTAR": 0, "MEAN_MOTION_DOT": -3e-08, "MEAN_MOTION_DDOT": 0}, "tle": {"line1": "1 38740U 12043A   25349.21461862 -.00000003  00000+0  00000+0 0  9997", "line2": "2 38740   0.0039  45.5478 0003275 136.5346  47.8015  1.00269353 48909"}}, "geometry": {"type": "Point", "coordinates": [-148.08450751044614, -0.007344314112257575]}}, {"type": "Feature", "properties": {"norad_id": 38749, "name": "INTELSAT 21 (IS-21)", "group": "intelsat", "lat": 0.023776728794650606, "lon": 85.40886913572999, "alt_km": 35793.30353491305, "timestamp": "2025-12-16T03:53:26.726666+00:00", "meta": {"OBJECT_NAME": "INTELSAT 21 (IS-21)", "OBJECT_ID": "2012-045A", "EPOCH": "2025-12-15T06:15:49.153248", "MEAN_MOTION": 1.00271596, "ECCENTRICITY": 0.00016707, "INCLINATION": 0.0341, "RA_OF_ASC_NODE": 78.0265, "ARG_OF_PERICENTER": 185.1926, "MEAN_ANOMALY": 216.9083, "EPHEMERIS_TYPE": 0, "CLASSIFICATION_TYPE": "U", "NORAD_CAT_ID": 38749, "ELEMENT_SET_NO": 999, "REV_AT_EPOCH": 4868, "BSTAR": 0, "MEAN_MOTION_DOT": -2.64e-06, "MEAN_MOTION_DDOT": 0}, "tle": {"line1": "1 38749U 12045A   25349.26098557 -.00000264  00000+0  00000+0 0  9999", "line2": "2 38749   0.0341  78.0265 0001670 185.1926 216.9083  1.00271596 48681"}}, "geometry": {"type": "Point", "coordinates": [85.40886913572999, 0.023776728794650606]}}, {"type": "Feature", "properties": {"norad_id": 38867, "name": "INTELSAT 23 (IS-23)", "group": "intelsat", "lat": 0.020799673532669427, "lon": 90.42387059721709, "alt_km": 35785.583919611476, "timestamp": "2025-12-16T03:53:26.726678+00:00", "meta": {"OBJECT_NAME": "INTELSAT 23 (IS-23)", "OBJECT_ID": "2012-057A", "EPOCH": "2025-12-15T06:17:11.520960", "MEAN_MOTION": 1.00277312, "ECCENTRICITY": 5.671e-05, "INCLINATION": 0.0463, "RA_OF_ASC_NODE": 96.2209, "ARG_OF_PERICENTER": 107.4295, "MEAN_ANOMALY": 281.8228, "EPHEMERIS_TYPE": 0, "CLASSIFICATION_TYPE": "U", "NORAD_CAT_ID": 38867, "ELEMENT_SET_NO": 999, "REV_AT_EPOCH": 4811, "BSTAR": 0, "MEAN_MOTION_DOT": -2.64e-06, "MEAN_MOTION_DDOT": 0}, "tle": {"line1": "1 38867U 12057A   25349.26193890 -.00000264  00000+0  00000+0 0  9999", "line2": "2 38867   0.0463  96.2209 0000567 107.4295 281.8228  1.00277312 48119"}}, "geometry": {"type": "Point", "coordinates": [90.42387059721709, 0.020799673532669427]}}, {"type": "Feature", "properties": {"norad_id": 39360, "name": "FM-6", "group": "intelsat", "lat": 0.005626668947746494, "lon": 27.23712311351676, "alt_km": 35797.251056652654, "timestamp": "2025-12-16T03:53:26.726690+00:00", "meta": {"OBJECT_NAME": "FM-6", "OBJECT_ID": "2013-058A", "EPOCH": "2025-12-15T08:27:38.617056", "MEAN_MOTION": 1.00269303, "ECCENTRICITY": 0.00029093, "INCLINATION": 0.0082, "RA_OF_ASC_NODE": 55.5333, "ARG_OF_PERICENTER": 120.9594, "MEAN_ANOMALY": 278.5314, "EPHEMERIS_TYPE": 0, "CLASSIFICATION_TYPE": "U", "NORAD_CAT_ID": 39360, "ELEMENT_SET_NO": 999, "REV_AT_EPOCH": 4423, "BSTAR": 0, "MEAN_MOTION_DOT": 4e-08, "MEAN_MOTION_DDOT": 0}, "tle": {"line1": "1 39360U 13058A   25349.35253029  .00000004  00000+0  00000+0 0  9992", "line2": "2 39360   0.0082  55.5333 0002909 120.9594 278.5314  1.00269303 44234"}}, "geometry": {"type": "Point", "coordinates": [27.23712311351676, 0.005626668947746494]}}, {"type": "Feature", "properties": {"norad_id": 40271, "name": "INTELSAT 30 (IS-30)", "group": "intelsat", "lat": 0.02422698062825133, "lon": 48.31163629720739, "alt_km": 35782.56531962411, "timestamp": "2025-12-16T03:53:26.726702+00:00", "meta": {"OBJECT_NAME": "INTELSAT 30 (IS-30)", "OBJECT_ID": "2014-062A", "EPOCH": "2025-12-15T04:22:30.006336", "MEAN_MOTION": 1.00262844, "ECCENTRICITY": 0.00014931, "INCLINATION": 0.014, "RA_OF_ASC_NODE": 18.4031, "ARG_OF_PERICENTER": 46.4436, "MEAN_ANOMALY": 349.8109, "EPHEMERIS_TYPE": 0, "CLASSIFICATION_TYPE": "U", "NORAD_CAT_ID": 40271, "ELEMENT_SET_NO": 999, "REV_AT_EPOCH": 494, "BSTAR": 0, "MEAN_MOTION_DOT": -1.29e-06, "MEAN_MOTION_DDOT": 0}, "tle": {"line1": "1 40271U 14062A   25349.18229174 -.00000129  00000+0  00000+0 0  9995", "line2": "2 40271   0.0140  18.4031 0001493  46.4436 349.8109  1.00262844  4940"}}, "geometry": {"type": "Point", "coordinates": [48.31163629720739, 0.02422698062825133]}}, {"type": "Feature", "properties": {"norad_id": 40333, "name": "DIRECTV 14", "group": "intelsat", "lat": 0.014016739076706536, "lon": 44.17636140162992, "alt_km": 35785.9301241926, "timestamp": "2025-12-16T03:53:26.726714+00:00", "meta": {"OBJECT_NAME": "DIRECTV 14", "OBJECT_ID": "2014-078B", "EPOCH": "2025-12-15T08:59:38.406912", "MEAN_MOTION": 1.00272333, "ECCENTRICITY": 2.425e-05, "INCLINATION": 0.0059, "RA_OF_ASC_NODE": 31.6536, "ARG_OF_PERICENTER": 101.8864, "MEAN_ANOMALY": 346.4217, "EPHEMERIS_TYPE": 0, "CLASSIFICATION_TYPE": "U", "NORAD_CAT_ID": 40333, "ELEMENT_SET_NO": 999, "REV_AT_EPOCH": 4020, "BSTAR": 0, "MEAN_MOTION_DOT": -1.04e-06, "MEAN_MOTION_DDOT": 0}, "tle": {"line1": "1 40333U 14078B   25349.37475008 -.00000104  00000+0  00000+0 0  9994", "line2": "2 40333   0.0059  31.6536 0000242 101.8864 346.4217  1.00272333 40203"}}, "geometry": {"type": "Point", "coordinates": [44.17636140162992, 0.014016739076706536]}}, {"type": "Feature", "properties": {"norad_id": 40663, "name": "DIRECTV 15", "group": "intelsat", "lat": -0.0013152727242930827, "lon": 40.5415447183495, "alt_km": 35786.30460353784, "timestamp": "2025-12-16T03:53:26.726725+00:00", "meta": {"OBJECT_NAME": "DIRECTV 15", "OBJECT_ID": "2015-026A", "EPOCH": "2025-12-15T06:02:57.883776", "MEAN_MOTION": 1.00271583, "ECCENTRICITY": 8.69e-06, "INCLINATION": 0.0386, "RA_OF_ASC_NODE": 83.3608, "ARG_OF_PERICENTER": 72.8558, "MEAN_ANOMALY": 275.8207, "EPHEMERIS_TYPE": 0, "CLASSIFICATION_TYPE": "U", "NORAD_CAT_ID": 40663, "ELEMENT_SET_NO": 999, "REV_AT_EPOCH": 3861, "BSTAR": 0, "MEAN_MOTION_DOT": -8.2e-07, "MEAN_MOTION_DDOT": 0}, "tle": {"line1": "1 40663U 15026A   25349.25205884 -.00000082  00000+0  00000+0 0  9999", "line2": "2 40663   0.0386  83.3608 0000086  72.8558 275.8207  1.00271583 38611"}}, "geometry": {"type": "Point", "coordinates": [40.5415447183495, -0.0013152727242930827]}}]}